{"fetched_at":"2026-07-21T07:06:31.784Z","source":"https://celestrak.org/NORAD/elements/gp.php?GROUP=qianfan&FORMAT=JSON","constellation":"qianfan","records":[{"OBJECT_NAME":"QIANFAN-129","OBJECT_ID":"2026-104C","EPOCH":"2026-07-20T19:41:50.449920","CLASSIFICATION_TYPE":"U","MEAN_MOTION":13.57538994,"ECCENTRICITY":0.00088974,"INCLINATION":88.9904,"RA_OF_ASC_NODE":338.0041,"ARG_OF_PERICENTER":358.6077,"MEAN_ANOMALY":1.5052,"EPHEMERIS_TYPE":0,"NORAD_CAT_ID":69075,"ELEMENT_SET_NO":999,"REV_AT_EPOCH":971,"BSTAR":-0.000068518236,"MEAN_MOTION_DOT":-3.7e-7,"MEAN_MOTION_DDOT":0},{"OBJECT_NAME":"QIANFAN-130","OBJECT_ID":"2026-104D","EPOCH":"2026-07-20T21:48:21.183264","CLASSIFICATION_TYPE":"U","MEAN_MOTION":13.51012521,"ECCENTRICITY":0.00017313,"INCLINATION":88.9906,"RA_OF_ASC_NODE":338.0541,"ARG_OF_PERICENTER":107.98,"MEAN_ANOMALY":252.154,"EPHEMERIS_TYPE":0,"NORAD_CAT_ID":69076,"ELEMENT_SET_NO":999,"REV_AT_EPOCH":969,"BSTAR":0.000095212625,"MEAN_MOTION_DOT":7.4e-7,"MEAN_MOTION_DDOT":0},{"OBJECT_NAME":"QIANFAN-131","OBJECT_ID":"2026-104E","EPOCH":"2026-07-20T18:54:29.211840","CLASSIFICATION_TYPE":"U","MEAN_MOTION":13.51896531,"ECCENTRICITY":0.00084447,"INCLINATION":88.9889,"RA_OF_ASC_NODE":338.0325,"ARG_OF_PERICENTER":22.6683,"MEAN_ANOMALY":337.484,"EPHEMERIS_TYPE":0,"NORAD_CAT_ID":69077,"ELEMENT_SET_NO":999,"REV_AT_EPOCH":969,"BSTAR":-3.0670442,"MEAN_MOTION_DOT":-0.01872375,"MEAN_MOTION_DDOT":0},{"OBJECT_NAME":"QIANFAN-132","OBJECT_ID":"2026-104F","EPOCH":"2026-07-20T22:00:09.352224","CLASSIFICATION_TYPE":"U","MEAN_MOTION":13.51021834,"ECCENTRICITY":0.0001829,"INCLINATION":88.9902,"RA_OF_ASC_NODE":338.0732,"ARG_OF_PERICENTER":103.7314,"MEAN_ANOMALY":256.4041,"EPHEMERIS_TYPE":0,"NORAD_CAT_ID":69078,"ELEMENT_SET_NO":999,"REV_AT_EPOCH":968,"BSTAR":0.00011970783,"MEAN_MOTION_DOT":8.9e-7,"MEAN_MOTION_DDOT":0},{"OBJECT_NAME":"QIANFAN-133","OBJECT_ID":"2026-104G","EPOCH":"2026-07-20T21:21:28.119456","CLASSIFICATION_TYPE":"U","MEAN_MOTION":13.57838823,"ECCENTRICITY":0.00091639,"INCLINATION":88.9904,"RA_OF_ASC_NODE":338.0334,"ARG_OF_PERICENTER":352.6035,"MEAN_ANOMALY":7.4983,"EPHEMERIS_TYPE":0,"NORAD_CAT_ID":69079,"ELEMENT_SET_NO":999,"REV_AT_EPOCH":969,"BSTAR":0.00010932849,"MEAN_MOTION_DOT":9.1e-7,"MEAN_MOTION_DDOT":0},{"OBJECT_NAME":"QIANFAN-134","OBJECT_ID":"2026-104H","EPOCH":"2026-07-20T14:10:46.080768","CLASSIFICATION_TYPE":"U","MEAN_MOTION":13.52507903,"ECCENTRICITY":0.001287,"INCLINATION":88.9904,"RA_OF_ASC_NODE":338.0806,"ARG_OF_PERICENTER":3.8275,"MEAN_ANOMALY":356.2973,"EPHEMERIS_TYPE":0,"NORAD_CAT_ID":69080,"ELEMENT_SET_NO":999,"REV_AT_EPOCH":965,"BSTAR":-3.1675,"MEAN_MOTION_DOT":-0.01947373,"MEAN_MOTION_DDOT":0},{"OBJECT_NAME":"QIANFAN-135","OBJECT_ID":"2026-104J","EPOCH":"2026-07-20T18:48:58.659264","CLASSIFICATION_TYPE":"U","MEAN_MOTION":13.48198065,"ECCENTRICITY":0.00116816,"INCLINATION":88.9897,"RA_OF_ASC_NODE":338.0532,"ARG_OF_PERICENTER":343.7643,"MEAN_ANOMALY":16.3131,"EPHEMERIS_TYPE":0,"NORAD_CAT_ID":69081,"ELEMENT_SET_NO":999,"REV_AT_EPOCH":968,"BSTAR":-3.1826751,"MEAN_MOTION_DOT":-0.01836783,"MEAN_MOTION_DDOT":0},{"OBJECT_NAME":"QIANFAN-136","OBJECT_ID":"2026-104K","EPOCH":"2026-07-20T10:07:15.698208","CLASSIFICATION_TYPE":"U","MEAN_MOTION":13.53118208,"ECCENTRICITY":0.0015164,"INCLINATION":88.9897,"RA_OF_ASC_NODE":338.092,"ARG_OF_PERICENTER":3.146,"MEAN_ANOMALY":356.9785,"EPHEMERIS_TYPE":0,"NORAD_CAT_ID":69082,"ELEMENT_SET_NO":999,"REV_AT_EPOCH":963,"BSTAR":-3.2952,"MEAN_MOTION_DOT":-0.02060964,"MEAN_MOTION_DDOT":0},{"OBJECT_NAME":"QIANFAN-137","OBJECT_ID":"2026-104L","EPOCH":"2026-07-20T21:47:00.344832","CLASSIFICATION_TYPE":"U","MEAN_MOTION":13.57833446,"ECCENTRICITY":0.00101493,"INCLINATION":88.9911,"RA_OF_ASC_NODE":337.9243,"ARG_OF_PERICENTER":3.5789,"MEAN_ANOMALY":356.5436,"EPHEMERIS_TYPE":0,"NORAD_CAT_ID":69083,"ELEMENT_SET_NO":999,"REV_AT_EPOCH":976,"BSTAR":0.000021694495,"MEAN_MOTION_DOT":2.8e-7,"MEAN_MOTION_DDOT":0},{"OBJECT_NAME":"QIANFAN-138","OBJECT_ID":"2026-104M","EPOCH":"2026-07-20T14:11:42.220032","CLASSIFICATION_TYPE":"U","MEAN_MOTION":13.48610362,"ECCENTRICITY":0.0004043,"INCLINATION":88.99,"RA_OF_ASC_NODE":338.0797,"ARG_OF_PERICENTER":173.7408,"MEAN_ANOMALY":186.3793,"EPHEMERIS_TYPE":0,"NORAD_CAT_ID":69084,"ELEMENT_SET_NO":999,"REV_AT_EPOCH":965,"BSTAR":-3.5923,"MEAN_MOTION_DOT":-0.02090424,"MEAN_MOTION_DDOT":0},{"OBJECT_NAME":"QIANFAN-139","OBJECT_ID":"2026-104N","EPOCH":"2026-07-20T22:52:45.155424","CLASSIFICATION_TYPE":"U","MEAN_MOTION":13.55289811,"ECCENTRICITY":0.00085133,"INCLINATION":88.99,"RA_OF_ASC_NODE":338.0227,"ARG_OF_PERICENTER":354.1216,"MEAN_ANOMALY":5.9836,"EPHEMERIS_TYPE":0,"NORAD_CAT_ID":69085,"ELEMENT_SET_NO":999,"REV_AT_EPOCH":971,"BSTAR":0.000025797376,"MEAN_MOTION_DOT":3e-7,"MEAN_MOTION_DDOT":0},{"OBJECT_NAME":"QIANFAN-140","OBJECT_ID":"2026-104P","EPOCH":"2026-07-20T10:29:47.459040","CLASSIFICATION_TYPE":"U","MEAN_MOTION":13.48119991,"ECCENTRICITY":0.0011838,"INCLINATION":88.9896,"RA_OF_ASC_NODE":338.0773,"ARG_OF_PERICENTER":346.7171,"MEAN_ANOMALY":13.3665,"EPHEMERIS_TYPE":0,"NORAD_CAT_ID":69086,"ELEMENT_SET_NO":999,"REV_AT_EPOCH":964,"BSTAR":-3.0961,"MEAN_MOTION_DOT":-0.01787901,"MEAN_MOTION_DDOT":0},{"OBJECT_NAME":"QIANFAN-141","OBJECT_ID":"2026-104Q","EPOCH":"2026-07-20T12:56:34.713024","CLASSIFICATION_TYPE":"U","MEAN_MOTION":13.52645981,"ECCENTRICITY":0.00039394,"INCLINATION":88.9898,"RA_OF_ASC_NODE":338.0375,"ARG_OF_PERICENTER":339.0355,"MEAN_ANOMALY":21.0635,"EPHEMERIS_TYPE":0,"NORAD_CAT_ID":69087,"ELEMENT_SET_NO":999,"REV_AT_EPOCH":967,"BSTAR":-2.471778,"MEAN_MOTION_DOT":-0.01545414,"MEAN_MOTION_DDOT":0},{"OBJECT_NAME":"QIANFAN-142","OBJECT_ID":"2026-104R","EPOCH":"2026-07-20T16:16:15.028608","CLASSIFICATION_TYPE":"U","MEAN_MOTION":13.50347738,"ECCENTRICITY":0.00094853,"INCLINATION":88.9893,"RA_OF_ASC_NODE":338.0196,"ARG_OF_PERICENTER":357.0609,"MEAN_ANOMALY":3.0484,"EPHEMERIS_TYPE":0,"NORAD_CAT_ID":69088,"ELEMENT_SET_NO":999,"REV_AT_EPOCH":969,"BSTAR":-3.1582183,"MEAN_MOTION_DOT":-0.01881355,"MEAN_MOTION_DDOT":0},{"OBJECT_NAME":"QIANFAN-143","OBJECT_ID":"2026-104S","EPOCH":"2026-07-20T16:39:41.540256","CLASSIFICATION_TYPE":"U","MEAN_MOTION":13.52954334,"ECCENTRICITY":0.00099534,"INCLINATION":88.9904,"RA_OF_ASC_NODE":338.0228,"ARG_OF_PERICENTER":15.8265,"MEAN_ANOMALY":344.3196,"EPHEMERIS_TYPE":0,"NORAD_CAT_ID":69089,"ELEMENT_SET_NO":999,"REV_AT_EPOCH":969,"BSTAR":-2.7510132,"MEAN_MOTION_DOT":-0.01717672,"MEAN_MOTION_DDOT":0},{"OBJECT_NAME":"QIANFAN-144","OBJECT_ID":"2026-104T","EPOCH":"2026-07-20T21:42:25.314624","CLASSIFICATION_TYPE":"U","MEAN_MOTION":13.51020932,"ECCENTRICITY":0.00016687,"INCLINATION":88.9906,"RA_OF_ASC_NODE":338.0157,"ARG_OF_PERICENTER":98.246,"MEAN_ANOMALY":261.888,"EPHEMERIS_TYPE":0,"NORAD_CAT_ID":69090,"ELEMENT_SET_NO":999,"REV_AT_EPOCH":971,"BSTAR":0.000096948489,"MEAN_MOTION_DOT":7.5e-7,"MEAN_MOTION_DDOT":0}]}
