QIANFAN-129             
1 69075U 26104C   26201.82072280 -.00000037  00000+0 -68518-4 0  9993
2 69075  88.9904 338.0041 0008897 358.6077   1.5052 13.57538994  9718
QIANFAN-130             
1 69076U 26104D   26201.90857851  .00000074  00000+0  95213-4 0  9999
2 69076  88.9906 338.0541 0001731 107.9800 252.1540 13.51012521  9695
QIANFAN-131             
1 69077U 26104E   26201.78783810 -.01872375  00000+0 -30670+1 0  9995
2 69077  88.9889 338.0325 0008444  22.6683 337.4840 13.51896531  9697
QIANFAN-132             
1 69078U 26104F   26201.91677491  .00000089  00000+0  11971-3 0  9996
2 69078  88.9902 338.0732 0001829 103.7314 256.4041 13.51021834  9686
QIANFAN-133             
1 69079U 26104G   26201.88990879  .00000091  00000+0  10933-3 0  9991
2 69079  88.9904 338.0334 0009163 352.6035   7.4983 13.57838823  9691
QIANFAN-134             
1 69080U 26104H   26201.59081112 -.01947373  00000+0 -31675+1 0  9991
2 69080  88.9904 338.0806 0012870   3.8275 356.2973 13.52507903  9654
QIANFAN-135             
1 69081U 26104J   26201.78401226 -.01836783  00000+0 -31827+1 0  9996
2 69081  88.9897 338.0532 0011681 343.7643  16.3131 13.48198065  9689
QIANFAN-136             
1 69082U 26104K   26201.42170947 -.02060964  00000+0 -32952+1 0  9992
2 69082  88.9897 338.0920 0015164   3.1460 356.9785 13.53118208  9635
QIANFAN-137             
1 69083U 26104L   26201.90764288  .00000028  00000+0  21694-4 0  9999
2 69083  88.9911 337.9243 0010149   3.5789 356.5436 13.57833446  9760
QIANFAN-138             
1 69084U 26104M   26201.59146088 -.02090424  00000+0 -35923+1 0  9996
2 69084  88.9900 338.0797 0004043 173.7408 186.3793 13.48610362  9652
QIANFAN-139             
1 69085U 26104N   26201.95330041  .00000030  00000+0  25797-4 0  9993
2 69085  88.9900 338.0227 0008513 354.1216   5.9836 13.55289811  9719
QIANFAN-140             
1 69086U 26104P   26201.43735485 -.01787901  00000+0 -30961+1 0  9995
2 69086  88.9896 338.0773 0011838 346.7171  13.3665 13.48119991  9649
QIANFAN-141             
1 69087U 26104Q   26201.53929066 -.01545414  00000+0 -24718+1 0  9991
2 69087  88.9898 338.0375 0003939 339.0355  21.0635 13.52645981  9676
QIANFAN-142             
1 69088U 26104R   26201.67795172 -.01881355  00000+0 -31582+1 0  9990
2 69088  88.9893 338.0196 0009485 357.0609   3.0484 13.50347738  9698
QIANFAN-143             
1 69089U 26104S   26201.69423079 -.01717672  00000+0 -27510+1 0  9993
2 69089  88.9904 338.0228 0009953  15.8265 344.3196 13.52954334  9694
QIANFAN-144             
1 69090U 26104T   26201.90445966  .00000075  00000+0  96948-4 0  9992
2 69090  88.9906 338.0157 0001668  98.2460 261.8880 13.51020932  9719
